{
  "type": "FeatureCollection",
  "name": "new-thumamah-concept",
  "metadata": {
    "crs": "WGS 84 longitude, latitude",
    "method": "Vincenty direct radial local offsets",
    "surveyed": false,
    "dimensions_assumed": true,
    "note": "هندسة تصورية. الحد الخارجي يتداخل عمدًا مع مضلعات الاستخدام؛ لا تجمع مساحاتها معًا."
  },
  "features": [
    {
      "type": "Feature",
      "properties": {
        "name": "نيو ثمامة — حدود تصورية",
        "kind": "concept_boundary",
        "width_m": 1500,
        "depth_m": 1500,
        "area_m2": 2250000,
        "anchor": "sw",
        "dimensions_assumed": true,
        "surveyed": false
      },
      "geometry": {
        "type": "Polygon",
        "coordinates": [
          [
            [
              46.47678055555556,
              25.41685277777778
            ],
            [
              46.49169008020306,
              25.416852021632902
            ],
            [
              46.49169174586166,
              25.430392465424507
            ],
            [
              46.47678055555559,
              25.430393221777816
            ],
            [
              46.47678055555556,
              25.41685277777778
            ]
          ]
        ]
      }
    },
    {
      "type": "Feature",
      "properties": {
        "id": "G1",
        "name": "الوصول والاستقبال",
        "name_en": "ARRIVAL & SERVICES",
        "land_use": "services",
        "area_m2": 76800,
        "height_concept": "استقبال ومواقف وخدمات",
        "conceptual": true,
        "surveyed": false
      },
      "geometry": {
        "type": "Polygon",
        "coordinates": [
          [
            [
              46.48274438319754,
              25.417213735624138
            ],
            [
              46.48592509126513,
              25.417213572161216
            ],
            [
              46.485925254686094,
              25.41938004475871
            ],
            [
              46.48274448977645,
              25.41938020822884
            ],
            [
              46.48274438319754,
              25.417213735624138
            ]
          ]
        ]
      }
    },
    {
      "type": "Feature",
      "properties": {
        "id": "H1",
        "name": "تجربة الخيل",
        "name_en": "EQUESTRIAN",
        "land_use": "adventure",
        "area_m2": 202400,
        "height_concept": "ميدان ومرابط ومسارات",
        "conceptual": true,
        "surveyed": false
      },
      "geometry": {
        "type": "Polygon",
        "coordinates": [
          [
            [
              46.47737693832016,
              25.417213855398366
            ],
            [
              46.48194920617948,
              25.417213765735728
            ],
            [
              46.48194937552785,
              25.421185631692296
            ],
            [
              46.477376957860315,
              25.421185721362185
            ],
            [
              46.47737693832016,
              25.417213855398366
            ]
          ]
        ]
      }
    },
    {
      "type": "Feature",
      "properties": {
        "id": "E1",
        "name": "الشركات والفعاليات",
        "name_en": "CORPORATE & EVENTS",
        "land_use": "events",
        "area_m2": 202400,
        "height_concept": "قاعة مرنة وساحة فعاليات",
        "conceptual": true,
        "surveyed": false
      },
      "geometry": {
        "type": "Polygon",
        "coordinates": [
          [
            [
              46.48672026828058,
              25.417213520541345
            ],
            [
              46.49109374185116,
              25.417213159739962
            ],
            [
              46.491094232133946,
              25.421365564955973
            ],
            [
              46.486720608754695,
              25.42136592578785
            ],
            [
              46.48672026828058,
              25.417213520541345
            ]
          ]
        ]
      }
    },
    {
      "type": "Feature",
      "properties": {
        "id": "P1",
        "name": "العائلة والأطفال",
        "name_en": "FAMILY & KIDS",
        "land_use": "family",
        "area_m2": 96000,
        "height_concept": "لعب مظلل وجلسات أهل",
        "conceptual": true,
        "surveyed": false
      },
      "geometry": {
        "type": "Polygon",
        "coordinates": [
          [
            [
              46.48274453418719,
              25.420282904958988
            ],
            [
              46.485925322782464,
              25.420282741485853
            ],
            [
              46.48592552708669,
              25.422990831002064
            ],
            [
              46.48274466742896,
              25.422990994484206
            ],
            [
              46.48274453418719,
              25.420282904958988
            ]
          ]
        ]
      }
    },
    {
      "type": "Feature",
      "properties": {
        "id": "S1",
        "name": "الغروب والضيافة",
        "name_en": "SUNSET & HOSPITALITY",
        "land_use": "dining",
        "area_m2": 159600,
        "height_concept": "مطاعم وشرفة غروب ومسرح",
        "conceptual": true,
        "surveyed": false
      },
      "geometry": {
        "type": "Polygon",
        "coordinates": [
          [
            [
              46.4773769640783,
              25.42244949644599
            ],
            [
              46.4815518237358,
              25.4224494202179
            ],
            [
              46.48155195876825,
              25.42587966577312
            ],
            [
              46.47737698095739,
              25.42587974200652
            ],
            [
              46.4773769640783,
              25.42244949644599
            ]
          ]
        ]
      }
    },
    {
      "type": "Feature",
      "properties": {
        "id": "T1",
        "name": "الدروب والهايكنج",
        "name_en": "TRAILS & NATURE",
        "land_use": "adventure",
        "area_m2": 140000,
        "height_concept": "ممر طبيعي ونقاط إطلالة",
        "conceptual": true,
        "surveyed": false
      },
      "geometry": {
        "type": "Polygon",
        "coordinates": [
          [
            [
              46.48194948330922,
              25.423713181637968
            ],
            [
              46.48393753244204,
              25.42371309828236
            ],
            [
              46.48393790559919,
              25.430031969332425
            ],
            [
              46.481949752811715,
              25.430032052698756
            ],
            [
              46.48194948330922,
              25.423713181637968
            ]
          ]
        ]
      }
    },
    {
      "type": "Feature",
      "properties": {
        "id": "C1",
        "name": "المخيمات",
        "name_en": "DESERT CAMPS",
        "land_use": "stay",
        "area_m2": 144000,
        "height_concept": "خيام ومجالس ونيران",
        "conceptual": true,
        "surveyed": false
      },
      "geometry": {
        "type": "Polygon",
        "coordinates": [
          [
            [
              46.48433514226815,
              25.423713078384573
            ],
            [
              46.48910646017009,
              25.4237127557177
            ],
            [
              46.48910673557532,
              25.42642084395705
            ],
            [
              46.48433531106491,
              25.42642116664171
            ],
            [
              46.48433514226815,
              25.423713078384573
            ]
          ]
        ]
      }
    },
    {
      "type": "Feature",
      "properties": {
        "id": "D1",
        "name": "ليلة القبة",
        "name_en": "DOME STAYS",
        "land_use": "stay",
        "area_m2": 144000,
        "height_concept": "قباب إقامة على منصات",
        "conceptual": true,
        "surveyed": false
      },
      "geometry": {
        "type": "Polygon",
        "coordinates": [
          [
            [
              46.47757579534766,
              25.426782436999364
            ],
            [
              46.48155199430619,
              25.42678236170573
            ],
            [
              46.4815521222539,
              25.430032066144932
            ],
            [
              46.47757581667224,
              25.43003214144355
            ],
            [
              46.47757579534766,
              25.426782436999364
            ]
          ]
        ]
      }
    },
    {
      "type": "Feature",
      "properties": {
        "id": "V1",
        "name": "المبيت الخاص · VIP",
        "name_en": "PRIVATE STAYS",
        "land_use": "stay",
        "area_m2": 136000,
        "height_concept": "وحدات منفصلة وأفنية",
        "conceptual": true,
        "surveyed": false
      },
      "geometry": {
        "type": "Polygon",
        "coordinates": [
          [
            [
              46.4871186882325,
              25.42696261476206
            ],
            [
              46.49109489308205,
              25.42696228131757
            ],
            [
              46.49109525560175,
              25.430031446544852
            ],
            [
              46.48711895005238,
              25.430031780010175
            ],
            [
              46.4871186882325,
              25.42696261476206
            ]
          ]
        ]
      }
    },
    {
      "type": "Feature",
      "properties": {
        "id": "OPEN",
        "name": "أرض طبيعية ومسارات وصول",
        "land_use": "open",
        "area_m2": 948800,
        "conceptual": true
      },
      "geometry": {
        "type": "Polygon",
        "coordinates": [
          [
            [
              46.47678055555556,
              25.41685277777778
            ],
            [
              46.49169008020306,
              25.416852021632902
            ],
            [
              46.49169174586166,
              25.430392465424507
            ],
            [
              46.47678055555559,
              25.430393221777816
            ],
            [
              46.47678055555556,
              25.41685277777778
            ]
          ],
          [
            [
              46.48274438319754,
              25.417213735624138
            ],
            [
              46.48274448977645,
              25.41938020822884
            ],
            [
              46.485925254686094,
              25.41938004475871
            ],
            [
              46.48592509126513,
              25.417213572161216
            ],
            [
              46.48274438319754,
              25.417213735624138
            ]
          ],
          [
            [
              46.47737693832016,
              25.417213855398366
            ],
            [
              46.477376957860315,
              25.421185721362185
            ],
            [
              46.48194937552785,
              25.421185631692296
            ],
            [
              46.48194920617948,
              25.417213765735728
            ],
            [
              46.47737693832016,
              25.417213855398366
            ]
          ],
          [
            [
              46.48672026828058,
              25.417213520541345
            ],
            [
              46.486720608754695,
              25.42136592578785
            ],
            [
              46.491094232133946,
              25.421365564955973
            ],
            [
              46.49109374185116,
              25.417213159739962
            ],
            [
              46.48672026828058,
              25.417213520541345
            ]
          ],
          [
            [
              46.48274453418719,
              25.420282904958988
            ],
            [
              46.48274466742896,
              25.422990994484206
            ],
            [
              46.48592552708669,
              25.422990831002064
            ],
            [
              46.485925322782464,
              25.420282741485853
            ],
            [
              46.48274453418719,
              25.420282904958988
            ]
          ],
          [
            [
              46.4773769640783,
              25.42244949644599
            ],
            [
              46.47737698095739,
              25.42587974200652
            ],
            [
              46.48155195876825,
              25.42587966577312
            ],
            [
              46.4815518237358,
              25.4224494202179
            ],
            [
              46.4773769640783,
              25.42244949644599
            ]
          ],
          [
            [
              46.48194948330922,
              25.423713181637968
            ],
            [
              46.481949752811715,
              25.430032052698756
            ],
            [
              46.48393790559919,
              25.430031969332425
            ],
            [
              46.48393753244204,
              25.42371309828236
            ],
            [
              46.48194948330922,
              25.423713181637968
            ]
          ],
          [
            [
              46.48433514226815,
              25.423713078384573
            ],
            [
              46.48433531106491,
              25.42642116664171
            ],
            [
              46.48910673557532,
              25.42642084395705
            ],
            [
              46.48910646017009,
              25.4237127557177
            ],
            [
              46.48433514226815,
              25.423713078384573
            ]
          ],
          [
            [
              46.47757579534766,
              25.426782436999364
            ],
            [
              46.47757581667224,
              25.43003214144355
            ],
            [
              46.4815521222539,
              25.430032066144932
            ],
            [
              46.48155199430619,
              25.42678236170573
            ],
            [
              46.47757579534766,
              25.426782436999364
            ]
          ],
          [
            [
              46.4871186882325,
              25.42696261476206
            ],
            [
              46.48711895005238,
              25.430031780010175
            ],
            [
              46.49109525560175,
              25.430031446544852
            ],
            [
              46.49109489308205,
              25.42696228131757
            ],
            [
              46.4871186882325,
              25.42696261476206
            ]
          ]
        ]
      }
    },
    {
      "type": "Feature",
      "properties": {
        "id": "entry",
        "kind": "circulation",
        "access": "guest",
        "width_m": 9,
        "conceptual": true
      },
      "geometry": {
        "type": "LineString",
        "coordinates": [
          [
            46.48433471473368,
            25.41685258366699
          ],
          [
            46.484334782231144,
            25.41793582010077
          ],
          [
            46.48433483285612,
            25.418748247321325
          ]
        ]
      }
    },
    {
      "type": "Feature",
      "properties": {
        "id": "spine",
        "kind": "circulation",
        "access": "guest",
        "width_m": 8,
        "conceptual": true
      },
      "geometry": {
        "type": "LineString",
        "coordinates": [
          [
            46.48433483285612,
            25.418748247321325
          ],
          [
            46.484354785853725,
            25.41992175212501
          ],
          [
            46.4842852789609,
            25.421095261333313
          ],
          [
            46.48421578179864,
            25.422449309605163
          ],
          [
            46.48417607630677,
            25.423352007963008
          ]
        ]
      }
    },
    {
      "type": "Feature",
      "properties": {
        "id": "west",
        "kind": "circulation",
        "access": "guest",
        "width_m": 7,
        "conceptual": true
      },
      "geometry": {
        "type": "LineString",
        "coordinates": [
          [
            46.48417607630677,
            25.423352007963008
          ],
          [
            46.483142307103776,
            25.42360481130011
          ],
          [
            46.48194949485787,
            25.423983990509164
          ],
          [
            46.480955480506964,
            25.42434510058343
          ],
          [
            46.48006087083354,
            25.42497701056819
          ],
          [
            46.47976268478533,
            25.425969982563565
          ],
          [
            46.479683185120166,
            25.426962949664023
          ],
          [
            46.47976273587267,
            25.428046183019283
          ]
        ]
      }
    },
    {
      "type": "Feature",
      "properties": {
        "id": "east",
        "kind": "circulation",
        "access": "guest",
        "width_m": 7,
        "conceptual": true
      },
      "geometry": {
        "type": "LineString",
        "coordinates": [
          [
            46.48417607630677,
            25.423352007963008
          ],
          [
            46.48532915537339,
            25.42355053860755
          ],
          [
            46.48652201807454,
            25.423983758591074
          ],
          [
            46.4875161008257,
            25.424615576675183
          ],
          [
            46.4883114036885,
            25.42542794292079
          ],
          [
            46.48880852154423,
            25.426420868662593
          ],
          [
            46.489007440180444,
            25.42750408727594
          ],
          [
            46.48910695592144,
            25.42858731382996
          ]
        ]
      }
    },
    {
      "type": "Feature",
      "properties": {
        "id": "events",
        "kind": "circulation",
        "access": "guest",
        "width_m": 8,
        "conceptual": true
      },
      "geometry": {
        "type": "LineString",
        "coordinates": [
          [
            46.485328784882995,
            25.41829684443252
          ],
          [
            46.4863227778236,
            25.418459268709928
          ],
          [
            46.4871179837927,
            25.41870294309527
          ],
          [
            46.48791319130078,
            25.418928559233493
          ]
        ]
      }
    },
    {
      "type": "Feature",
      "properties": {
        "id": "stable",
        "kind": "circulation",
        "access": "service",
        "width_m": 6,
        "conceptual": true
      },
      "geometry": {
        "type": "LineString",
        "coordinates": [
          [
            46.48274443204514,
            25.418206702313896
          ],
          [
            46.48175045633184,
            25.41829700897448
          ],
          [
            46.48075648061808,
            25.418432443757897
          ],
          [
            46.47976250268346,
            25.418567871817462
          ],
          [
            46.47896732003949,
            25.418748425173472
          ]
        ]
      }
    },
    {
      "type": "Feature",
      "properties": {
        "id": "backwest",
        "kind": "circulation",
        "access": "service",
        "width_m": 6,
        "conceptual": true
      },
      "geometry": {
        "type": "LineString",
        "coordinates": [
          [
            46.47896732003949,
            25.418748425173472
          ],
          [
            46.47807274322872,
            25.41956086289379
          ],
          [
            46.477873959780936,
            25.421185718505384
          ],
          [
            46.47797337437771,
            25.422630032096013
          ],
          [
            46.478072794231366,
            25.424345154193873
          ],
          [
            46.47837102447829,
            25.42597000421012
          ],
          [
            46.47876865799731,
            25.426962964878772
          ]
        ]
      }
    },
    {
      "type": "Feature",
      "properties": {
        "id": "backeast",
        "kind": "circulation",
        "access": "service",
        "width_m": 6,
        "conceptual": true
      },
      "geometry": {
        "type": "LineString",
        "coordinates": [
          [
            46.48791319130078,
            25.418928559233493
          ],
          [
            46.48970243224687,
            25.419560300593464
          ],
          [
            46.49029898761728,
            25.421004561619455
          ],
          [
            46.49039857039509,
            25.422629406102473
          ],
          [
            46.49000114134981,
            25.424254295702003
          ],
          [
            46.489703086639,
            25.425698635965368
          ],
          [
            46.48990205117593,
            25.427142931811915
          ]
        ]
      }
    },
    {
      "type": "Feature",
      "properties": {
        "id": "T-LOOP",
        "name": "حلقة المشي",
        "kind": "trail",
        "conceptual": true,
        "surveyed": false
      },
      "geometry": {
        "type": "LineString",
        "coordinates": [
          [
            46.4831422843622,
            25.42317151707947
          ],
          [
            46.482844118966796,
            25.42398395632645
          ],
          [
            46.482645352920144,
            25.42479639094643
          ],
          [
            46.48278456231981,
            25.42569908139272
          ],
          [
            46.48250626926142,
            25.42651151886203
          ],
          [
            46.48264547959707,
            25.427414209229298
          ],
          [
            46.4830232613856,
            25.428208565931318
          ],
          [
            46.48286425324568,
            25.429039052598426
          ],
          [
            46.48322215140274,
            25.42967092424272
          ],
          [
            46.48389812981907,
            25.42981532434581
          ],
          [
            46.48463371812579,
            25.42940004694086
          ],
          [
            46.484892122261044,
            25.428587606862067
          ],
          [
            46.484593850519445,
            25.427775196884582
          ],
          [
            46.484156421101034,
            25.42705306284583
          ],
          [
            46.48433529981128,
            25.426240627455616
          ],
          [
            46.48473287054594,
            25.425518449692767
          ],
          [
            46.48453401069992,
            25.42470603384229
          ],
          [
            46.48389779266154,
            25.424074178705094
          ],
          [
            46.48344051023912,
            25.423532582389313
          ],
          [
            46.4831422843622,
            25.42317151707947
          ]
        ]
      }
    },
    {
      "type": "Feature",
      "properties": {
        "name": "إطلالة الوادي",
        "kind": "viewpoint",
        "conceptual": true
      },
      "geometry": {
        "type": "Point",
        "coordinates": [
          46.482645352920144,
          25.42479639094643
        ]
      }
    },
    {
      "type": "Feature",
      "properties": {
        "name": "الإطلالة الشمالية",
        "kind": "viewpoint",
        "conceptual": true
      },
      "geometry": {
        "type": "Point",
        "coordinates": [
          46.48322215140274,
          25.42967092424272
        ]
      }
    },
    {
      "type": "Feature",
      "properties": {
        "name": "نقطة الاستراحة",
        "kind": "viewpoint",
        "conceptual": true
      },
      "geometry": {
        "type": "Point",
        "coordinates": [
          46.484892122261044,
          25.428587606862067
        ]
      }
    },
    {
      "type": "Feature",
      "properties": {
        "name": "النقطة المرجعية المعطاة",
        "kind": "supplied_reference_point",
        "surveyed": false
      },
      "geometry": {
        "type": "Point",
        "coordinates": [
          46.47678055555556,
          25.41685277777778
        ]
      }
    }
  ]
}
